NORAD_CAT_ID,OBJECT_NAME,OBJECT_TYPE,EPOCH,MEAN_MOTION,ECCENTRICITY,INCLINATION,RA_OF_ASC_NODE,ARG_OF_PERICENTER,MEAN_ANOMALY,BSTAR,MEAN_MOTION_DOT,MEAN_MOTION_DDOT,TLE_LINE0,TLE_LINE1,TLE_LINE2,SEMIMAJOR_AXIS,PERIOD,APOGEE,PERIGEE,DECAYED
53255.0,STARLINK-4142,PAYLOAD,2022-12-28 11:23:51,15.08846363,0.0002176,53.2184,33.9559,42.3127,317.8033,0.00013959,1.934e-05,0.0,0 STARLINK-4142,1 53255U 22086P   22362.47490306  .00001934  00000-0  13959-3 0  9993,2 53255  53.2184  33.9559 0002176  42.3127 317.8033 15.08846363 24852,6917.861,95.437,541.231,538.221,0.0
53255.0,STARLINK-4142,PAYLOAD,2022-12-28 19:20:48,15.0883,0.0002177,53.2185,32.4695,41.8185,318.2973,-4.0879e-05,-9.39e-06,0.0,0 STARLINK-4142,1 53255U 22086P   22362.80611854 -.00000939  00000-0 -40879-4 0  9991,2 53255  53.2185  32.4695 0002177  41.8185 318.2973 15.08830000 24722,6917.911,95.438,541.2819999999998,538.27,0.0
53255.0,STARLINK-4142,PAYLOAD,2022-12-29 08:03:54,15.08825197,0.0002082,53.2175,30.0904,37.0958,323.0178,-8.1417e-05,-1.583e-05,0.0,0 STARLINK-4142,1 53255U 22086P   22363.33604559 -.00001583  00000-0 -81417-4 0  9993,2 53255  53.2175  30.0904 0002082  37.0958 323.0178 15.08825197 24988,6917.926,95.438,541.231,538.35,0.0
53255.0,STARLINK-4142,PAYLOAD,2022-12-30 01:33:07,15.08841912,0.0002171,53.2188,26.8193,37.7807,322.3337,-4.753600000000002e-05,-1.045e-05,0.0,0 STARLINK-4142,1 53255U 22086P   22364.06467582 -.00001045  00000-0 -47536-4 0  9994,2 53255  53.2188  26.8193 0002171  37.7807 322.3337 15.08841912 24919,6917.875,95.437,541.241,538.238,0.0
53255.0,STARLINK-4142,PAYLOAD,2022-12-30 07:54:39,15.08846466,0.0002154,53.2175,25.6297,36.8109,323.3031,9.0878e-05,1.159e-05,0.0,0 STARLINK-4142,1 53255U 22086P   22364.32962775  .00001159  00000-0  90878-4 0  9998,2 53255  53.2175  25.6297 0002154  36.8109 323.3031 15.08846466 24958,6917.861,95.437,541.216,538.236,0.0
53255.0,STARLINK-4142,PAYLOAD,2022-12-31 10:56:12,15.08844819,0.0002141,53.2177,20.575,31.5146,328.5974,0.00025075,3.705e-05,0.0,0 STARLINK-4142,1 53255U 22086P   22365.45570119  .00003705  00000-0  25075-3 0  9995,2 53255  53.2177  20.5750 0002141  31.5146 328.5974 15.08844819 25120,6917.866,95.437,541.212,538.25,0.0
53255.0,STARLINK-4142,PAYLOAD,2023-01-01 07:36:14,15.08840162,0.0002195999999999,53.2175,16.7085,43.0536,317.0627,6.1919000000000025e-06,-1.9e-06,0.0,0 STARLINK-4142,1 53255U 22086P   23001.31683185 -.00000190  00000-0  61919-5 0  9991,2 53255  53.2175  16.7085 0002196  43.0536 317.0627 15.08840162 25256,6917.88,95.438,541.264,538.226,0.0
53255.0,STARLINK-4142,PAYLOAD,2023-01-01 10:47:01,15.08834366,0.0002102,53.2185,16.1147,33.0416,327.0707,-0.00010486,-1.956e-05,0.0,0 STARLINK-4142,1 53255U 22086P   23001.44931798 -.00001956  00000-0 -10486-3 0  9994,2 53255  53.2185  16.1147 0002102  33.0416 327.0707 15.08834366 25274,6917.898,95.438,541.217,538.308,0.0
53255.0,STARLINK-4142,PAYLOAD,2023-01-02 01:05:30,15.08826048,0.0002117,53.2184,13.4383,32.189,327.9231,-0.00017785,-3.117e-05,0.0,0 STARLINK-4142,1 53255U 22086P   23002.04548717 -.00003117  00000-0 -17785-3 0  9996,2 53255  53.2184  13.4383 0002117  32.1890 327.9231 15.08826048 25366,6917.9230000000025,95.438,541.253,538.3240000000002,0.0
53255.0,STARLINK-4142,PAYLOAD,2023-01-02 07:27:02,15.08830311,0.0002174999999999,53.2179,12.2497,32.0985,328.014,-0.00015078,-2.687e-05,0.0,0 STARLINK-4142,1 53255U 22086P   23002.31044466 -.00002687  00000-0 -15078-3 0  9992,2 53255  53.2179  12.2497 0002175  32.0985 328.0140 15.08830311 25584,6917.91,95.438,541.28,538.27,0.0
53255.0,STARLINK-4142,PAYLOAD,2023-01-02 16:59:20,15.08842675,0.0002148,53.2185,10.4644,36.5931,323.5208,1.6886e-05,-2e-07,0.0,0 STARLINK-4142,1 53255U 22086P   23002.70787317 -.00000020  00000-0  16886-4 0  9991,2 53255  53.2185  10.4644 0002148  36.5931 323.5208 15.08842675 25463,6917.871999999999,95.437,541.2230000000002,538.251,0.0
53255.0,STARLINK-4142,PAYLOAD,2023-01-03 00:56:16,15.08825629,0.0002124,53.2184,8.9779,37.4838,322.6302,0.00016041,2.265e-05,0.0,0 STARLINK-4142,1 53255U 22086P   23003.03908106  .00002265  00000-0  16041-3 0  9993,2 53255  53.2184   8.9779 0002124  37.4838 322.6302 15.08825629 25514,6917.924,95.438,541.259,538.32,0.0
53255.0,STARLINK-4142,PAYLOAD,2023-01-03 07:17:49,15.08828909,0.0002142,53.2184,7.7886,38.319,321.7954,0.00018343,2.631e-05,0.0,0 STARLINK-4142,1 53255U 22086P   23003.30404240  .00002631  00000-0  18343-3 0  9997,2 53255  53.2184   7.7886 0002142  38.3190 321.7954 15.08828909 25732,6917.9140000000025,95.438,541.261,538.297,0.0
53255.0,STARLINK-4142,PAYLOAD,2023-01-04 07:08:36,15.088431900000002,0.0002121,53.219,3.3296,41.6241,318.4912,0.00018626,2.678e-05,0.0,0 STARLINK-4142,1 53255U 22086P   23004.29764158  .00002678  00000-0  18626-3 0  9998,2 53255  53.2190   3.3296 0002121  41.6241 318.4912 15.08843190 25700,6917.871,95.437,541.203,538.268,0.0
53255.0,STARLINK-4142,PAYLOAD,2023-01-04 16:40:55,15.08842831,0.0002106999999999,53.219,1.5457,41.4982,318.617,9.482e-05,1.221e-05,0.0,0 STARLINK-4142,1 53255U 22086P   23004.69508338  .00001221  00000-0  94820-4 0  9992,2 53255  53.2190   1.5457 0002107  41.4982 318.6170 15.08842831 25948,6917.871999999999,95.437,541.194,538.279,0.0
53255.0,STARLINK-4142,PAYLOAD,2023-01-05 00:37:49,15.08852898,0.0002095,53.2172,0.0563,32.6842,327.428,0.00021778,3.181e-05,0.0,0 STARLINK-4142,1 53255U 22086P   23005.02627188  .00003181  00000-0  21778-3 0  9993,2 53255  53.2172   0.0563 0002095  32.6842 327.4280 15.08852898 25813,6917.840999999999,95.437,541.155,538.257,0.0
53255.0,STARLINK-4142,PAYLOAD,2023-01-05 16:31:40,15.08858621,0.0002322,53.2177,357.0835,38.7373,321.3785,0.00023698,3.487e-05,0.0,0 STARLINK-4142,1 53255U 22086P   23005.68866608  .00003487  00000-0  23698-3 0  9999,2 53255  53.2177 357.0835 0002322  38.7373 321.3785 15.08858621 26098,6917.823,95.436,541.295,538.082,0.0
53255.0,STARLINK-4142,PAYLOAD,2023-01-06 05:14:45,15.08864016,0.0002315,53.2181,354.7036,40.254,319.8623,0.00024478,3.612e-05,0.0,0 STARLINK-4142,1 53255U 22086P   23006.21857720  .00003612  00000-0  24478-3 0  9991,2 53255  53.2181 354.7036 0002315  40.2540 319.8623 15.08864016 25992,6917.807,95.436,541.273,538.071,0.0
53255.0,STARLINK-4142,PAYLOAD,2023-01-06 08:25:32,15.08839509,0.0001703,53.2164,354.1093,23.3381,336.7688,-0.00011174,-2.066e-05,0.0,0 STARLINK-4142,1 53255U 22086P   23006.35107165 -.00002066  00000-0 -11174-3 0  9990,2 53255  53.2164 354.1093 0001703  23.3381 336.7688 15.08839509 26017,6917.882,95.438,540.925,538.569,0.0
53255.0,STARLINK-4142,PAYLOAD,2023-01-07 05:05:35,15.08817567,0.0001854,53.2153,350.2437,26.279,333.8296,-0.00032276,-5.418e-05,0.0,0 STARLINK-4142,1 53255U 22086P   23007.21221089 -.00005418  00000-0 -32276-3 0  9998,2 53255  53.2153 350.2437 0001854  26.2790 333.8296 15.08817567 26324,6917.949000000001,95.439,541.097,538.531,0.0
53255.0,STARLINK-4142,PAYLOAD,2023-01-07 08:16:21,15.08833806,0.0002202,53.2178,349.6487,36.3078,323.8063,-0.00019201,-3.342e-05,0.0,0 STARLINK-4142,1 53255U 22086P   23007.34469237 -.00003342  00000-0 -19201-3 0  9998,2 53255  53.2178 349.6487 0002202  36.3078 323.8063 15.08833806 26164,6917.899,95.438,541.288,538.241,0.0
53255.0,STARLINK-4142,PAYLOAD,2023-01-07 16:13:16,15.08846593,0.0001951,53.2177,348.1622,33.9905,326.1212,9.372e-06,-1.39e-06,0.0,0 STARLINK-4142,1 53255U 22086P   23007.67588028 -.00000139  00000-0  93720-5 0  9994,2 53255  53.2177 348.1622 0001951  33.9905 326.1212 15.08846593 26215,6917.86,95.437,541.075,538.376,0.0
53255.0,STARLINK-4142,PAYLOAD,2023-01-07 22:34:48,15.08843594,0.0002007,53.2186,346.9733,29.5723,330.5382,0.00021855,3.192e-05,0.0,0 STARLINK-4142,1 53255U 22086P   23007.94083707  .00003192  00000-0  21855-3 0  9997,2 53255  53.2186 346.9733 0002007  29.5723 330.5382 15.08843594 26435,6917.8690000000015,95.437,541.123,538.346,0.0
53255.0,STARLINK-4142,PAYLOAD,2023-01-08 08:07:08,15.08837765,0.0001649,53.218,345.1880000000001,36.9442,323.1663,0.00036634,5.547e-05,0.0,0 STARLINK-4142,1 53255U 22086P   23008.33828825  .00005547  00000-0  36634-3 0  9996,2 53255  53.2180 345.1880 0001649  36.9442 323.1663 15.08837765 26314,6917.887,95.438,540.893,538.611,0.0
53255.0,STARLINK-4142,PAYLOAD,2023-01-08 22:25:36,15.08843302,0.0002348,53.2169,342.5141,37.0595,323.0559,0.00015471,2.175e-05,0.0,0 STARLINK-4142,1 53255U 22086P   23008.93444898  .00002175  00000-0  15471-3 0  9996,2 53255  53.2169 342.5141 0002348  37.0595 323.0559 15.08843302 26586,6917.87,95.437,541.36,538.111,0.0
53255.0,STARLINK-4142,PAYLOAD,2023-01-09 06:22:32,15.08842811,0.0002096,53.2173,341.0246,35.7919,324.3213,0.00017386,2.48e-05,0.0,0 STARLINK-4142,1 53255U 22086P   23009.26564841  .00002480  00000-0  17386-3 0  9990,2 53255  53.2173 341.0246 0002096  35.7919 324.3213 15.08842811 26637,6917.871999999999,95.437,541.187,538.2869999999998,0.0
53255.0,STARLINK-4142,PAYLOAD,2023-01-09 22:16:22,15.08852858,0.0002179,53.2157,338.0508,36.9366,323.1776,-0.00019965,-3.466e-05,0.0,0 STARLINK-4142,1 53255U 22086P   23009.92804091 -.00003466  00000-0 -19965-3 0  9999,2 53255  53.2157 338.0508 0002179  36.9366 323.1776 15.08852858 26731,6917.840999999999,95.437,541.2130000000002,538.1990000000002,0.0
53255.0,STARLINK-4142,PAYLOAD,2023-01-10 07:48:42,15.08842193,0.0002209,53.2178,336.2695,40.9638,319.152,7.1437e-05,8.49e-06,0.0,0 STARLINK-4142,1 53255U 22086P   23010.32548721  .00000849  00000-0  71437-4 0  9993,2 53255  53.2178 336.2695 0002209  40.9638 319.1520 15.08842193 26612,6917.874,95.437,541.2669999999998,538.211,0.0
53255.0,STARLINK-4142,PAYLOAD,2023-01-10 14:10:14,15.08846513,0.0002084,53.2177,335.0799,34.9675,325.1454,-5.9517e-05,-1.236e-05,0.0,0 STARLINK-4142,1 53255U 22086P   23010.59044600 -.00001236  00000-0 -59517-4 0  9997,2 53255  53.2177 335.0799 0002084  34.9675 325.1454 15.08846513 26835,6917.86,95.437,541.1669999999998,538.284,0.0
